H1 CPF  1  DGF 2022 04 25 11  6151 larets     NONE      
H2   304206 5557    27944 2022 04 25 00 00 00 2022 05 02 00 00 00    30 1 1  0 0 0
H5  0.0650
H9
10 0 59700  61200.000000  0       3382122.629      -4157364.227      -4619887.614
10 0 59700  61230.000000  0       3247753.059      -4077403.602      -4784967.743
10 0 59700  61260.000000  0       3110476.396      -3992746.940      -4945198.628
10 0 59700  61290.000000  0       2970452.054      -3903468.222      -5100419.372
10 0 59700  61320.000000  0       2827841.770      -3809646.697      -5250474.218
10 0 59700  61350.000000  0       2682809.419      -3711366.815      -5395212.688
10 0 59700  61380.000000  0       2535520.830      -3608718.143      -5534489.724
10 0 59700  61410.000000  0       2386143.594      -3501795.279      -5668165.827
10 0 59700  61440.000000  0       2234846.880      -3390697.768      -5796107.183
10 0 59700  61470.000000  0       2081801.238      -3275530.001      -5918185.790
10 0 59700  61500.000000  0       1927178.413      -3156401.117      -6034279.575
10 0 59700  61530.000000  0       1771151.153      -3033424.899      -6144272.507
10 0 59700  61560.000000  0       1613893.017      -2906719.663      -6248054.706
10 0 59700  61590.000000  0       1455578.185      -2776408.137      -6345522.541
10 0 59700  61620.000000  0       1296381.263      -2642617.345      -6436578.727
10 0 59700  61650.000000  0       1136477.099      -2505478.476      -6521132.409
10 0 59700  61680.000000  0        976040.593      -2365126.760      -6599099.239
10 0 59700  61710.000000  0        815246.509      -2221701.330      -6670401.459
10 0 59700  61740.000000  0        654269.290      -2075345.089      -6734967.961
10 0 59700  61770.000000  0        493282.876      -1926204.567      -6792734.354
10 0 59700  61800.000000  0        332460.516      -1774429.776      -6843643.016
10 0 59700  61830.000000  0        171974.593      -1620174.063      -6887643.149
10 0 59700  61860.000000  0         11996.443      -1463593.958      -6924690.821
10 0 59700  61890.000000  0       -147303.818      -1304849.017      -6954749.002
10 0 59700  61920.000000  0       -305757.473      -1144101.668      -6977787.601
10 0 59700  61950.000000  0       -463197.373       -981517.049      -6993783.494
10 0 59700  61980.000000  0       -619458.111       -817262.841      -7002720.541
10 0 59700  62010.000000  0       -774376.189       -651509.103      -7004589.607
10 0 59700  62040.000000  0       -927790.189       -484428.101      -6999388.566
10 0 59700  62070.000000  0      -1079540.929       -316194.134      -6987122.302
10 0 59700  62100.000000  0      -1229471.631       -146983.356      -6967802.708
10 0 59700  62130.000000  0      -1377428.072         23026.396      -6941448.675
10 0 59700  62160.000000  0      -1523258.744        193655.783      -6908086.076
10 0 59700  62190.000000  0      -1666815.000        364724.152      -6867747.749
10 0 59700  62220.000000  0      -1807951.202        536049.718      -6820473.465
10 0 59700  62250.000000  0      -1946524.868        707449.748      -6766309.895
10 0 59700  62280.000000  0      -2082396.811        878740.758      -6705310.577
10 0 59700  62310.000000  0      -2215431.275       1049738.695      -6637535.861
10 0 59700  62340.000000  0      -2345496.068       1220259.136      -6563052.865
10 0 59700  62370.000000  0      -2472462.696       1390117.472      -6481935.416
10 0 59700  62400.000000  0      -2596206.489       1559129.109      -6394263.985
10 0 59700  62430.000000  0      -2716606.721       1727109.663      -6300125.626
10 0 59700  62460.000000  0      -2833546.733       1893875.158      -6199613.892
10 0 59700  62490.000000  0      -2946914.044       2059242.225      -6092828.759
10 0 59700  62520.000000  0      -3056600.463       2223028.300      -5979876.538
10 0 59700  62550.000000  0      -3162502.195       2385051.827      -5860869.780
10 0 59700  62580.000000  0      -3264519.943       2545132.453      -5735927.179
10 0 59700  62610.000000  0      -3362559.009       2703091.234      -5605173.461
10 0 59700  62640.000000  0      -3456529.380       2858750.830      -5468739.274
10 0 59700  62670.000000  0      -3546345.825       3011935.710      -5326761.066
10 0 59700  62700.000000  0      -3631927.970       3162472.344      -5179380.960
10 0 59700  62730.000000  0      -3713200.378       3310189.407      -5026746.622
10 0 59700  62760.000000  0      -3790092.622       3454917.975      -4869011.123
10 0 59700  62790.000000  0      -3862539.346       3596491.717      -4706332.793
10 0 59700  62820.000000  0      -3930480.331       3734747.092      -4538875.075
10 0 59700  62850.000000  0      -3993860.546       3869523.541      -4366806.364
10 0 59700  62880.000000  0      -4052630.197       4000663.675      -4190299.852
10 0 59700  62910.000000  0      -4106744.767       4128013.464      -4009533.358
10 0 59700  62940.000000  0      -4156165.057       4251422.421      -3824689.161
10 0 59700  62970.000000  0      -4200857.215       4370743.787      -3635953.823
10 0 59700  63000.000000  0      -4240792.767       4485834.713      -3443518.009
10 0 59700  63030.000000  0      -4275948.633       4596556.430      -3247576.293
10 0 59700  63060.000000  0      -4306307.146       4702774.430      -3048326.972
10 0 59700  63090.000000  0      -4331856.059       4804358.624      -2845971.862
10 0 59700  63120.000000  0      -4352588.539       4901183.514      -2640716.105
10 0 59700  63150.000000  0      -4368503.173       4993128.350      -2432767.958
10 0 59700  63180.000000  0      -4379603.951       5080077.287      -2222338.586
10 0 59700  63210.000000  0      -4385900.252       5161919.541      -2009641.851
10 0 59700  63240.000000  0      -4387406.822       5238549.535      -1794894.086
10 0 59700  63270.000000  0      -4384143.745       5309867.034      -1578313.879
10 0 59700  63300.000000  0      -4376136.404       5375777.294      -1360121.843
10 0 59700  63330.000000  0      -4363415.442       5436191.183      -1140540.389
10 0 59700  63360.000000  0      -4346016.704       5491025.310       -919793.488
10 0 59700  63390.000000  0      -4323981.185       5540202.134       -698106.432
10 0 59700  63420.000000  0      -4297354.962       5583650.065       -475705.612
10 0 59700  63450.000000  0      -4266189.136       5621303.574       -252818.279
10 0 59700  63480.000000  0      -4230539.754       5653103.290        -29672.308
10 0 59700  63510.000000  0      -4190467.735       5678996.097        193504.045
10 0 59700  63540.000000  0      -4146038.776       5698935.212        416482.389
10 0 59700  63570.000000  0      -4097323.262       5712880.264        639034.439
10 0 59700  63600.000000  0      -4044396.173       5720797.356        860932.261
10 0 59700  63630.000000  0      -3987336.977       5722659.124       1081948.511
10 0 59700  63660.000000  0      -3926229.525       5718444.790       1301856.682
10 0 59700  63690.000000  0      -3861161.937       5708140.209       1520431.347
10 0 59700  63720.000000  0      -3792226.479       5691737.900       1737448.397
10 0 59700  63750.000000  0      -3719519.435       5669237.075       1952685.286
10 0 59700  63780.000000  0      -3643140.983       5640643.652       2165921.261
10 0 59700  63810.000000  0      -3563195.055       5605970.270       2376937.600
10 0 59700  63840.000000  0      -3479789.202       5565236.289       2585517.841
10 0 59700  63870.000000  0      -3393034.451       5518467.785       2791448.013
10 0 59700  63900.000000  0      -3303045.159       5465697.535       2994516.856
10 0 59700  63930.000000  0      -3209938.866       5406964.998       3194516.049
10 0 59700  63960.000000  0      -3113836.147       5342316.291       3391240.423
10 0 59700  63990.000000  0      -3014860.448       5271804.147       3584488.188
10 0 59700  64020.000000  0      -2913137.936       5195487.875       3774061.135
10 0 59700  64050.000000  0      -2808797.329       5113433.303       3959764.854
10 0 59700  64080.000000  0      -2701969.739       5025712.721       4141408.929
10 0 59700  64110.000000  0      -2592788.501       4932404.810       4318807.137
10 0 59700  64140.000000  0      -2481389.013       4833594.568       4491777.648
10 0 59700  64170.000000  0      -2367908.559       4729373.229       4660143.205
10 0 59700  64200.000000  0      -2252486.147       4619838.171       4823731.315
10 0 59700  64230.000000  0      -2135262.332       4505092.823       4982374.428
10 0 59700  64260.000000  0      -2016379.040       4385246.554       5135910.106
10 0 59700  64290.000000  0      -1895979.397       4260414.566       5284181.193
10 0 59700  64320.000000  0      -1774207.551       4130717.775       5427035.969
10 0 59700  64350.000000  0      -1651208.501       3996282.684       5564328.307
10 0 59700  64380.000000  0      -1527127.918       3857241.257       5695917.818
10 0 59700  64410.000000  0      -1402111.979       3713730.778       5821669.994
10 0 59700  64440.000000  0      -1276307.186       3565893.716       5941456.343
10 0 59700  64470.000000  0      -1149860.194       3413877.566       6055154.518
10 0 59700  64500.000000  0      -1022917.639       3257834.702       6162648.436
10 0 59700  64530.000000  0       -895625.967       3097922.213       6263828.394
10 0 59700  64560.000000  0       -768131.266       2934301.742       6358591.172
10 0 59700  64590.000000  0       -640579.098       2767139.319       6446840.137
10 0 59700  64620.000000  0       -513114.332       2596605.191       6528485.338
10 0 59700  64650.000000  0       -385880.977       2422873.643       6603443.596
10 0 59700  64680.000000  0       -259022.021       2246122.814       6671638.589
10 0 59700  64710.000000  0       -132679.265       2066534.511       6733000.925
10 0 59700  64740.000000  0         -6993.165       1884294.010       6787468.210
10 0 59700  64770.000000  0        117897.325       1699589.870       6834985.101
99
